TIANYAN 01              
1 44881U 19093C   26140.24413337  .00000838  00000+0  10073-3 0  9999
2 44881  97.7536 213.1571 0013657 172.2911 187.8517 14.86469463347269
TIANYAN 02              
1 44882U 19093D   26140.26221700  .00004602  00000+0  32941-3 0  9994
2 44882  97.7926 234.7951 0015412 116.8247 243.4557 15.04834846348414
CBERS 4A                
1 44883U 19093E   26140.33254655 -.00000284  00000+0 -29710-4 0  9993
2 44883  97.7502 208.4629 0000240 315.7752  44.3442 14.81602858346957
WEILAI 1R               
1 44884U 19093F   26140.24673971  .00003742  00000+0  30208-3 0  9993
2 44884  97.7835 230.1006 0016198 121.6692 238.6114 15.00370213348230
FLORIPASAT-1            
1 44885U 19093G   26140.27716512  .00005633  00000+0  41666-3 0  9997
2 44885  97.7901 234.3105 0012318 161.0230 199.1457 15.03535664348458
SHUNTIAN                
1 44886U 19093H   26140.29932851  .00001085  00000+0  10449-3 0  9998
2 44886  97.7999 228.6064 0012321 152.7285 207.4584 14.94996978348011
ELEKTRO-L 3             
1 44903U 19095A   26140.18034992 -.00000100  00000+0  00000+0 0  9993
2 44903   0.1854  80.1093 0000913 315.1582 343.4405  1.00270721 23423
GONETS-M 14             
1 44905U 19096A   26140.27626488 -.00000041  00000+0 -36928-3 0  9990
2 44905  82.5214 101.9438 0012383 210.1923 149.8444 12.42868613290216
GONETS-M 15             
1 44906U 19096B   26140.30569711  .00000010  00000+0  13607-5 0  9995
2 44906  82.5233 102.3826 0013987 235.1812 124.7953 12.42870115290182
GONETS-M 16             
1 44907U 19096C   26140.25190027 -.00000062  00000+0 -51596-3 0  9996
2 44907  82.5180 101.3814 0009698 282.4495  77.5499 12.42890529290165
RS-44 & BREEZE-KM R/B   
1 44909U 19096E   26140.09433240  .00000017  00000+0  27474-4 0  9994
2 44909  82.5231 358.3764 0216910 209.8294 149.0299 12.79748364298754
JILIN-1 KUANFU 01       
1 45016U 20003A   26140.26645101  .00001958  00000+0  12247-3 0  9990
2 45016  97.5035 214.7691 0010733  46.0051 314.2062 15.10547207351118
XINGYUN-2 01            
1 45602U 20028A   26140.27571994  .00000885  00000+0  55743-4 0  9994
2 45602  97.4861 133.2343 0007671 308.7899  51.2646 15.11673022330624
XINGYUN-2 02            
1 45603U 20028B   26140.31565402  .00000879  00000+0  55786-4 0  9997
2 45603  97.5072 146.7998 0011520  17.4301 342.7323 15.11408492330622
HAIYANG-1D              
1 45721U 20036A   26140.27561718  .00000203  00000+0  87738-4 0  9991
2 45721  98.4553  82.5648 0001702 210.7486 149.3599 14.34163142310975
M2 PATHFINDER           
1 45727U 20037E   26139.78257526  .00001010  00000+0  76609-4 0  9993
2 45727  97.8159 330.6972 0009965 245.4969 114.5217 15.04537414321229
GAOFEN DUOMO (GFDM)     
1 45856U 20042A   26140.29336574  .00000423  00000+0  67219-4 0  9995
2 45856  97.7757 201.1920 0011480 156.0485 204.1261 14.76836477316896
ZIYUAN 3-03 (ZY 3-03)   
1 45939U 20051A   26140.29720995  .00001420  00000+0  66501-4 0  9992
2 45939  97.2840 208.9220 0005816  56.2870 303.8920 15.21279236323105
NEMO-HD                 
1 46277U 20061F   26140.33171486  .00007611  00000+0  16903-3 0  9997
2 46277  97.1930 202.5759 0002638 114.5501 245.6023 15.43974584317680
NAPA-1                  
1 46320U 20061BA  26140.30421904  .00050001  00000+0  52329-3 0  9999
2 46320  97.2479 213.6451 0001837 139.9916 220.1479 15.64294444317373
JILIN-1 GAOFEN 3E       
1 46457U 20065D   26140.28905511  .00041337  00000+0  50460-3 0  9998
2 46457  97.2275 192.3193 0010145 254.0482 105.9657 15.60289556315407
JILIN-1 GAOFEN 3F       
1 46458U 20065E   26140.26959986  .00035057  00000+0  46631-3 0  9999
2 46458  97.2230 189.7580 0011767 243.0594 116.9461 15.58022278315354
JILIN-1 GAOFEN 3G       
1 46459U 20065F   26140.27124782  .00056657  00000+0  54498-3 0  9998
2 46459  97.2306 196.1435 0012723 149.3578 210.8429 15.66294693315565
JILIN-1 GAOFEN 3H       
1 46460U 20065G   26140.25380388  .00049653  00000+0  53059-3 0  9994
2 46460  97.2250 192.6026 0008650  99.5254 260.6983 15.63720252315518
HAIYANG-2C              
1 46469U 20066A   26140.33228861  .00000026  00000+0  97470-4 0  9997
2 46469  65.9980 284.6353 0009920 239.5739 120.4350 13.83372485285641
HJ-2A                   
1 46478U 20067A   26140.24564714  .00000621  00000+0  96172-4 0  9997
2 46478  97.8827 219.2761 0003651  21.1897 338.9463 14.76572007304139
HJ-2B                   
1 46479U 20067B   26140.28203230  .00000277  00000+0  46920-4 0  9998
2 46479  97.8891 220.3124 0001244  78.7951 281.3399 14.76517077304148
