OBJECT_NAME,OBJECT_ID,EPOCH,MEAN_MOTION,ECCENTRICITY,INCLINATION,RA_OF_ASC_NODE,ARG_OF_PERICENTER,MEAN_ANOMALY,EPHEMERIS_TYPE,CLASSIFICATION_TYPE,NORAD_CAT_ID,ELEMENT_SET_NO,REV_AT_EPOCH,BSTAR,MEAN_MOTION_DOT,MEAN_MOTION_DDOT
TIANYAN 01,2019-093C,2026-05-20T05:51:33.123168,14.86469463,.00136577,97.7536,213.1571,172.2911,187.8517,0,U,44881,999,34726,.10073018E-3,.838E-5,0
TIANYAN 02,2019-093D,2026-05-20T06:17:35.548800,15.04834846,.00154129,97.7926,234.7951,116.8247,243.4557,0,U,44882,999,34841,.32941161E-3,.4602E-4,0
CBERS 4A,2019-093E,2026-05-20T07:58:52.021920,14.81602858,.000024,97.7502,208.4629,315.7752,44.3442,0,U,44883,999,34695,-.29710076E-4,-.284E-5,0
WEILAI 1R,2019-093F,2026-05-20T05:55:18.310944,15.00370213,.00161982,97.7835,230.1006,121.6692,238.6114,0,U,44884,999,34823,.30208059E-3,.3742E-4,0
FLORIPASAT-1,2019-093G,2026-05-20T06:39:07.066368,15.03535664,.00123187,97.7901,234.3105,161.0230,199.1457,0,U,44885,999,34845,.41665758E-3,.5633E-4,0
SHUNTIAN,2019-093H,2026-05-20T07:11:01.983264,14.94996978,.00123213,97.7999,228.6064,152.7285,207.4584,0,U,44886,999,34801,.10448663E-3,.1085E-4,0
ELEKTRO-L 3,2019-095A,2026-05-20T04:19:42.233088,1.00270721,.0000913,0.1854,80.1093,315.1582,343.4405,0,U,44903,999,2342,0,-.1E-5,0
GONETS-M 14,2019-096A,2026-05-20T06:37:49.285632,12.42868613,.00123837,82.5214,101.9438,210.1923,149.8444,0,U,44905,999,29021,-.36927625E-3,-.41E-6,0
GONETS-M 15,2019-096B,2026-05-20T07:20:12.230304,12.42870115,.00139875,82.5233,102.3826,235.1812,124.7953,0,U,44906,999,29018,.1360663E-5,.1E-6,0
GONETS-M 16,2019-096C,2026-05-20T06:02:44.183328,12.42890529,.00096985,82.5180,101.3814,282.4495,77.5499,0,U,44907,999,29016,-.51595799E-3,-.62E-6,0
RS-44 & BREEZE-KM R/B,2019-096E,2026-05-20T02:15:50.319360,12.79748364,.02169102,82.5231,358.3764,209.8294,149.0299,0,U,44909,999,29875,.2747361E-4,.17E-6,0
JILIN-1 KUANFU 01,2020-003A,2026-05-20T06:23:41.367264,15.10547207,.00107333,97.5035,214.7691,46.0051,314.2062,0,U,45016,999,35111,.12246587E-3,.1958E-4,0
XINGYUN-2 01,2020-028A,2026-05-20T06:37:02.202816,15.11673022,.00076715,97.4861,133.2343,308.7899,51.2646,0,U,45602,999,33062,.55742605E-4,.885E-5,0
XINGYUN-2 02,2020-028B,2026-05-20T07:34:32.507328,15.11408492,.00115205,97.5072,146.7998,17.4301,342.7323,0,U,45603,999,33062,.55785572E-4,.879E-5,0
HAIYANG-1D,2020-036A,2026-05-20T06:36:53.324352,14.34163142,.00017021,98.4553,82.5648,210.7486,149.3599,0,U,45721,999,31097,.87737709E-4,.203E-5,0
M2 PATHFINDER,2020-037E,2026-05-19T18:46:54.502464,15.04537414,.00099656,97.8159,330.6972,245.4969,114.5217,0,U,45727,999,32122,.7660919E-4,.101E-4,0
GAOFEN DUOMO (GFDM),2020-042A,2026-05-20T07:02:26.799936,14.76836477,.00114801,97.7757,201.1920,156.0485,204.1261,0,U,45856,999,31689,.67219015E-4,.423E-5,0
ZIYUAN 3-03 (ZY 3-03),2020-051A,2026-05-20T07:07:58.939680,15.21279236,.00058165,97.2840,208.9220,56.2870,303.8920,0,U,45939,999,32310,.66501362E-4,.142E-4,0
NEMO-HD,2020-061F,2026-05-20T07:57:40.163904,15.43974584,.00026382,97.1930,202.5759,114.5501,245.6023,0,U,46277,999,31768,.16902713E-3,.7611E-4,0
NAPA-1,2020-061BA,2026-05-20T07:18:04.525056,15.64294444,.00018371,97.2479,213.6451,139.9916,220.1479,0,U,46320,999,31737,.52329123E-3,.50001E-3,0
JILIN-1 GAOFEN 3E,2020-065D,2026-05-20T06:56:14.361504,15.60289556,.00101458,97.2275,192.3193,254.0482,105.9657,0,U,46457,999,31540,.50459989E-3,.41337E-3,0
JILIN-1 GAOFEN 3F,2020-065E,2026-05-20T06:28:13.427904,15.58022278,.00117671,97.2230,189.7580,243.0594,116.9461,0,U,46458,999,31535,.46631375E-3,.35057E-3,0
JILIN-1 GAOFEN 3G,2020-065F,2026-05-20T06:30:35.811648,15.66294693,.00127234,97.2306,196.1435,149.3578,210.8429,0,U,46459,999,31556,.54497755E-3,.56657E-3,0
JILIN-1 GAOFEN 3H,2020-065G,2026-05-20T06:05:28.655232,15.63720252,.00086501,97.2250,192.6026,99.5254,260.6983,0,U,46460,999,31551,.53058681E-3,.49653E-3,0
HAIYANG-2C,2020-066A,2026-05-20T07:58:29.735904,13.83372485,.00099203,65.9980,284.6353,239.5739,120.4350,0,U,46469,999,28564,.97469622E-4,.26E-6,0
HJ-2A,2020-067A,2026-05-20T05:53:43.912896,14.76572007,.0003651,97.8827,219.2761,21.1897,338.9463,0,U,46478,999,30413,.961717E-4,.621E-5,0
HJ-2B,2020-067B,2026-05-20T06:46:07.590720,14.76517077,.00012447,97.8891,220.3124,78.7951,281.3399,0,U,46479,999,30414,.46919719E-4,.277E-5,0
